{
    "links": {
        "self": "http://www.neowsapp.com/rest/v1/neo/3653971?api_key=iIulBulltgU6a56xZRHN4H3l9WmuAYTsLGpBGhQ2"
    },
    "id": "3653971",
    "neo_reference_id": "3653971",
    "name": "(2013 WV45)",
    "designation": "2013 WV45",
    "nasa_jpl_url": "http://ssd.jpl.nasa.gov/sbdb.cgi?sstr=3653971",
    "absolute_magnitude_h": 24.9,
    "estimated_diameter": {
        "kilometers": {
            "estimated_diameter_min": 0.0278326768,
            "estimated_diameter_max": 0.0622357573
        },
        "meters": {
            "estimated_diameter_min": 27.8326768072,
            "estimated_diameter_max": 62.2357573367
        },
        "miles": {
            "estimated_diameter_min": 0.0172944182,
            "estimated_diameter_max": 0.0386714948
        },
        "feet": {
            "estimated_diameter_min": 91.3145593761,
            "estimated_diameter_max": 204.1855621004
        }
    },
    "is_potentially_hazardous_asteroid": false,
    "close_approach_data": [
        {
            "close_approach_date": "2013-12-27",
            "close_approach_date_full": "2013-Dec-27 14:22",
            "epoch_date_close_approach": 1388154120000,
            "relative_velocity": {
                "kilometers_per_second": "5.9340795598",
                "kilometers_per_hour": "21362.686415353",
                "miles_per_hour": "13273.942567362"
            },
            "miss_distance": {
                "astronomical": "0.061153675",
                "lunar": "23.788779575",
                "kilometers": "9148459.52267225",
                "miles": "5684589.14948705"
            },
            "orbiting_body": "Earth"
        }
    ],
    "orbital_data": {
        "orbit_id": "8",
        "orbit_determination_date": "2017-04-06 08:43:28",
        "first_observation_date": "2013-11-29",
        "last_observation_date": "2013-12-11",
        "data_arc_in_days": 12,
        "observations_used": 23,
        "orbit_uncertainty": "8",
        "minimum_orbit_intersection": ".0611169",
        "jupiter_tisserand_invariant": "3.866",
        "epoch_osculation": "2456628.5",
        "eccentricity": ".4540485789381157",
        "semi_major_axis": "1.854899575595857",
        "inclination": "4.183527057371816",
        "ascending_node_longitude": "54.0603046516329",
        "orbital_period": "922.7393250473092",
        "perihelion_distance": "1.012685059223644",
        "perihelion_argument": "54.44716502641989",
        "aphelion_distance": "2.697114091968069",
        "perihelion_time": "2456664.997231443248",
        "mean_anomaly": "345.7608720437967",
        "mean_motion": ".3901426873527284",
        "equinox": "J2000",
        "orbit_class": {
            "orbit_class_type": "APO",
            "orbit_class_description": "Near-Earth asteroid orbits which cross the Earth’s orbit similar to that of 1862 Apollo",
            "orbit_class_range": "a (semi-major axis) > 1.0 AU; q (perihelion) < 1.017 AU"
        }
    },
    "is_sentry_object": false
}